{"fetched_at": "2026-03-18T05:49:34.383733+00:00", "count": 374, "satellites": [ {"name": "DUPLEX", "tle1": "1 66906U 98067XS  26076.86846201  .00023871  00000+0  33315-3 0  9991", "tle2": "2 66906  51.6300  28.5236 0002923 147.5599 212.5573 15.56749570 16401", "norad_id": 66906, "group": "stations", "highlight": false, "owner_code": "US", "owner_country": "United States", "owner_flag": "🇺🇸"}, {"name": "ISS OBJECT XT", "tle1": "1 66907U 98067XT  26076.85404335  .00141215  00000+0  10418-2 0  9990", "tle2": "2 66907  51.6254  23.9047 0004960 133.7464 226.3945 15.72037118 16468", "norad_id": 66907, "group": "stations", "highlight": true, "owner_code": "XX", "owner_country": "Unknown", "owner_flag": "🌐"}, {"name": "ISS OBJECT XU", "tle1": "1 66908U 98067XU  26076.85153676  .00143415  00000+0  10510-2 0  9997", "tle2": "2 66908  51.6253  23.8844 0005185 134.5412 225.6010 15.72184619 16468", "norad_id": 66908, "group": "stations", "highlight": true, "owner_code": "XX", "owner_country": "Unknown", "owner_flag": "🌐"}, {"name": "SILVERSAT", "tle1": "1 66909U 98067XV  26076.83582369  .00194062  00000+0  12052-2 0  9998", "tle2": "2 66909  51.6245  23.0257 0005592 135.6947 224.4501 15.75860504 16477", "norad_id": 66909, "group": "stations", "highlight": false, "owner_code": "US", "owner_country": "United States", "owner_flag": "🇺🇸"}, {"name": "ISS OBJECT XW", "tle1": "1 66910U 98067XW  26076.85303997  .00123250  00000+0  94833-3 0  9999", "tle2": "2 66910  51.6246  23.8907 0005548 135.6820 224.4623 15.71100096 16464", "norad_id": 66910, "group": "stations", "highlight": true, "owner_code": "XX", "owner_country": "Unknown", "owner_flag": "🌐"}, {"name": "ISS OBJECT XX", "tle1": "1 66911U 98067XX  26076.87710630  .00249839  00000+0  12731-2 0  9996", "tle2": "2 66911  51.6216  21.7750 0007190 140.6515 219.5010 15.80108940 16480", "norad_id": 66911, "group": "stations", "highlight": true, "owner_code": "XX", "owner_country": "Unknown", "owner_flag": "🌐"}, {"name": "ISS OBJECT XY", "tle1": "1 66912U 98067XY  26076.88531610  .00077134  00000+0  75848-3 0  9993", "tle2": "2 66912  51.6276  25.6291 0003618 137.8396 222.2878 15.65311946 16439", "norad_id": 66912, "group": "stations", "highlight": true, "owner_code": "XX", "owner_country": "Unknown", "owner_flag": "🌐"}, {"name": "KNACKSAT-2", "tle1": "1 67683U 98067XZ  26076.83982383  .00029346  00000+0  47514-3 0  9992", "tle2": "2 67683  51.6316  31.3309 0009650 214.5543 145.4820 15.52508996  6052", "norad_id": 67683, "group": "stations", "highlight": false, "owner_code": "TH", "owner_country": "Thailand", "owner_flag": "🇹🇭"}, {"name": "GXIBA-1", "tle1": "1 67684U 98067YA  26076.86189177  .00060522  00000+0  86157-3 0  9993", "tle2": "2 67684  51.6316  30.7297 0011750 204.5716 155.4717 15.55683009  6066", "norad_id": 67684, "group": "stations", "highlight": false, "owner_code": "MX", "owner_country": "Mexico", "owner_flag": "🇲🇽"}, {"name": "CORAL", "tle1": "1 67685U 98067YB  26076.12540672  .00033584  00000+0  53452-3 0  9994", "tle2": "2 67685  51.6322  34.8103 0011539 208.7599 151.2756 15.52891550  5947", "norad_id": 67685, "group": "stations", "highlight": false, "owner_code": "IT", "owner_country": "Italy", "owner_flag": "🇮🇹"}, {"name": "ISS OBJECT YC", "tle1": "1 67686U 98067YC  26076.18125465  .00042474  00000+0  65716-3 0  9994", "tle2": "2 67686  51.6318  34.4356 0008506 178.1520 181.9503 15.53596478  5956", "norad_id": 67686, "group": "stations", "highlight": true, "owner_code": "XX", "owner_country": "Unknown", "owner_flag": "🌐"}, {"name": "LEOPARD", "tle1": "1 67687U 98067YD  26076.83647326  .00031269  00000+0  50220-3 0  9996", "tle2": "2 67687  51.6319  31.3108 0008197 184.0691 176.0233 15.52713902  5979", "norad_id": 67687, "group": "stations", "highlight": false, "owner_code": "JP", "owner_country": "Japan", "owner_flag": "🇯🇵"}, {"name": "ISS OBJECT YE", "tle1": "1 67688U 98067YE  26076.18513148  .00039222  00000+0  61484-3 0  9990", "tle2": "2 67688  51.6319  34.4615 0008254 178.8227 181.2784 15.53273796  5878", "norad_id": 67688, "group": "stations", "highlight": true, "owner_code": "XX", "owner_country": "Unknown", "owner_flag": "🌐"}, {"name": "CREW DRAGON 12", "tle1": "1 67796U 26031A   26076.38694946  .00012661  00000+0  24296-3 0  9998", "tle2": "2 67796  51.6338  34.3055 0006232 201.4845 158.5882 15.48344038557442", "norad_id": 67796, "group": "stations", "highlight": false, "owner_code": "US", "owner_country": "United States", "owner_flag": "🇺🇸"}]}